H1 CPF 01  gfz 2021 08 31 00  7431 terrasarx 
H2 0702601  6201 31698    2021 08 31 00 59 42 2021 09 05 00 00 42   120 1 1  0 0 0
H9
10 0 59459  46062.000000  0    1338670.188   2438496.019   6291803.012
10 0 59459  46182.000000  0    1216844.641   1574277.374   6584629.123
10 0 59459  46302.000000  0    1058446.962    685043.781   6761758.454
10 0 59459  46422.000000  0     865947.144   -213070.412   6820097.849
10 0 59459  46542.000000  0     642690.814  -1103830.304   6758627.869
10 0 59459  46662.000000  0     392840.937  -1971194.082   6578420.454
10 0 59459  46782.000000  0     121300.235  -2799601.772   6282621.621
10 0 59459  46902.000000  0    -166383.999  -3574256.108   5876399.038
10 0 59459  47022.000000  0    -464130.168  -4281387.491   5366854.660
10 0 59459  47142.000000  0    -765446.508  -4908501.054   4762908.020
10 0 59459  47262.000000  0   -1063568.416  -5444605.718   4075148.756
10 0 59459  47382.000000  0   -1351606.150  -5880417.578   3315654.433
10 0 59459  47502.000000  0   -1622698.435  -6208529.898   2497779.056
10 0 59459  47622.000000  0   -1870169.339  -6423548.259   1635917.713
10 0 59459  47742.000000  0   -2087685.149  -6522186.979    745248.509
10 0 59459  47862.000000  0   -2269404.913  -6503322.673   -158542.320
10 0 59459  47982.000000  0   -2410121.962  -6368004.501  -1059545.311
10 0 59459  48102.000000  0   -2505393.103  -6119420.504  -1941916.542
10 0 59459  48222.000000  0   -2551652.445  -5762821.281  -2790164.132
10 0 59459  48342.000000  0   -2546306.562  -5305402.653  -3589426.564
10 0 59459  48462.000000  0   -2487808.401  -4756150.311  -4325735.799
10 0 59459  48582.000000  0   -2375708.685  -4125652.400  -4986259.212
10 0 59459  48702.000000  0   -2210684.530  -3425885.991  -5559517.309
10 0 59459  48822.000000  0   -1994545.244  -2669982.346  -6035575.016
10 0 59459  48942.000000  0   -1730214.760  -1871975.309  -6406204.136
10 0 59459  49062.000000  0   -1421691.128  -1046538.376  -6665013.940
10 0 59459  49182.000000  0   -1073985.633   -208716.369  -6807549.925
10 0 59459  49302.000000  0    -693042.136    626344.066  -6831361.510
10 0 59459  49422.000000  0    -285636.655   1443661.312  -6736039.380
10 0 59459  49542.000000  0     140739.744   2228680.442  -6523221.397
10 0 59459  49662.000000  0     578014.131   2967526.462  -6196569.331
10 0 59459  49782.000000  0    1017681.396   3647247.163  -5761713.377
10 0 59459  49902.000000  0    1450965.315   4256039.306  -5226163.645
10 0 59459  50022.000000  0    1868989.773   4783456.181  -4599192.440
10 0 59459  50142.000000  0    2262957.815   5220593.944  -3891684.739
10 0 59459  50262.000000  0    2624334.131   5560250.367  -3115957.890
10 0 59459  50382.000000  0    2945027.827   5797053.828  -2285554.380
10 0 59459  50502.000000  0    3217571.809   5927558.804  -1415008.547
10 0 59459  50622.000000  0    3435293.372   5950304.412   -519591.031
10 0 59459  50742.000000  0    3592471.092   5865833.317    384963.978
10 0 59459  50862.000000  0    3684474.100   5676670.068   1282742.112
10 0 59459  50982.000000  0    3707881.066   5387259.541   2157936.317
10 0 59459  51102.000000  0    3660574.796   5003868.177   2995133.502
10 0 59459  51222.000000  0    3541809.666   4534447.368   3779595.208
10 0 59459  51342.000000  0    3352251.213   3988463.286   4497521.057
10 0 59459  51462.000000  0    3093986.344   3376701.584   5136296.399
10 0 59459  51582.000000  0    2770500.617   2711046.120   5684713.771
10 0 59459  51702.000000  0    2386630.997   2004241.894   6133164.269
10 0 59459  51822.000000  0    1948492.186   1269646.671   6473801.512
10 0 59459  51942.000000  0    1463375.921    520974.733   6700672.678
10 0 59459  52062.000000  0     939627.142   -227959.214   6809815.681
10 0 59459  52182.000000  0     386499.750   -963493.835   6799325.349
10 0 59459  52302.000000  0    -186007.203  -1672370.791   6669385.000
10 0 59459  52422.000000  0    -767330.365  -2341973.496   6422262.966
10 0 59459  52542.000000  0   -1346536.348  -2960551.890   6062274.125
10 0 59459  52662.000000  0   -1912524.559  -3517428.941   5595708.522
10 0 59459  52782.000000  0   -2454239.023  -4003187.907   5030729.415
10 0 59459  52902.000000  0   -2960886.856  -4409837.427   4377238.029
10 0 59459  53022.000000  0   -3422157.067  -4730949.374   3646704.323
10 0 59459  53142.000000  0   -3828433.136  -4961766.230   2851967.288
10 0 59459  53262.000000  0   -4170994.951  -5099276.146   2007009.344
10 0 59459  53382.000000  0   -4442207.510  -5142253.945   1126707.540
10 0 59459  53502.000000  0   -4635690.432  -5091265.477    226565.745
10 0 59459  53622.000000  0   -4746463.880  -4948635.747   -677565.956
10 0 59459  53742.000000  0   -4771067.158  -4718381.344  -1569779.733
10 0 59459  53862.000000  0   -4707645.702  -4406107.911  -2434399.530
10 0 59459  53982.000000  0   -4556004.570  -4018875.573  -3256263.532
10 0 59459  54102.000000  0   -4317628.123  -3565037.642  -4020993.267
10 0 59459  54222.000000  0   -3995666.358  -3054057.328  -4715244.962
10 0 59459  54342.000000  0   -3594888.608  -2496306.378  -5326938.804
10 0 59459  54462.000000  0   -3121606.102  -1902851.207  -5845461.737
10 0 59459  54582.000000  0   -2583566.522  -1285231.554  -6261841.973
10 0 59459  54702.000000  0   -1989822.053   -655235.783  -6568893.596
10 0 59459  54822.000000  0   -1350573.551    -24677.713  -6761328.618
10 0 59459  54942.000000  0    -676996.024    594820.239  -6835836.838
10 0 59459  55062.000000  0      18952.986   1192035.625  -6791136.832
10 0 59459  55182.000000  0     724740.077   1756343.765  -6627995.273
10 0 59459  55302.000000  0    1427475.925   2277902.293  -6349217.661
10 0 59459  55422.000000  0    2114146.310   2747820.704  -5959605.175
10 0 59459  55542.000000  0    2771849.149   3158311.723  -5465880.381
10 0 59459  55662.000000  0    3388034.009   3502821.054  -4876581.256
10 0 59459  55782.000000  0    3950741.638   3776136.070  -4201925.899
10 0 59459  55902.000000  0    4448839.396   3974469.650  -3453645.737
10 0 59459  56022.000000  0    4872247.034   4095516.756  -2644789.048
10 0 59459  56142.000000  0    5212146.088   4138481.917  -1789497.602
10 0 59459  56262.000000  0    5461169.448   4104077.173   -902760.374
10 0 59459  56382.000000  0    5613564.966   3994489.207      -147.908
10 0 59459  56502.000000  0    5665329.251   3813316.961    902466.181
10 0 59459  56622.000000  0    5614308.253   3565479.727   1789192.344
10 0 59459  56742.000000  0    5460260.080   3257097.643   2644413.701
10 0 59459  56862.000000  0    5204878.792   2895349.233   3453069.851
10 0 59459  56982.000000  0    4851778.509   2488308.193   4200929.589
10 0 59459  57102.000000  0    4406437.557   2044763.349   4874844.582
10 0 59459  57222.000000  0    3876109.117   1574029.635   5462980.802
10 0 59459  57342.000000  0    3269694.558   1085751.815   5955026.859
10 0 59459  57462.000000  0    2597585.064    589705.069   6342368.857
10 0 59459  57582.000000  0    1871478.172     95599.940   6618233.375
10 0 59459  57702.000000  0    1104171.656   -387106.212   6777800.994
10 0 59459  57822.000000  0     309335.356   -849389.840   6818286.849
10 0 59459  57942.000000  0    -498733.467  -1282829.359   6738985.168
10 0 59459  58062.000000  0   -1305366.882  -1679758.275   6541280.191
10 0 59459  58182.000000  0   -2095791.232  -2033400.721   6228622.053
10 0 59459  58302.000000  0   -2855395.253  -2337986.441   5806470.817
10 0 59459  58422.000000  0   -3570001.568  -2588846.825   5282210.047
10 0 59459  58542.000000  0   -4226136.775  -2782489.017   4665023.208
10 0 59459  58662.000000  0   -4811290.625  -2916645.136   3965736.827
10 0 59459  58782.000000  0   -5314160.741  -2990295.635   3196633.850
10 0 59459  58902.000000  0   -5724878.214  -3003667.190   2371240.228
10 0 59459  59022.000000  0   -6035209.804  -2958205.554   1504086.091
10 0 59459  59142.000000  0   -6238729.769  -2856522.763    610444.263
10 0 59459  59262.000000  0   -6330955.947  -2702318.327   -293946.059
10 0 59459  59382.000000  0   -6309448.580  -2500278.634  -1193165.149
10 0 59459  59502.000000  0   -6173866.579  -2255955.383  -2071403.261
10 0 59459  59622.000000  0   -5925980.096  -1975627.415  -2913246.045
10 0 59459  59742.000000  0   -5569641.875  -1666149.711  -3703949.779
10 0 59459  59862.000000  0   -5110717.509  -1334793.473  -4429701.263
10 0 59459  59982.000000  0   -4556977.680   -989081.365  -5077857.107
10 0 59459  60102.000000  0   -3917954.858   -636621.491  -5637158.859
10 0 59459  60222.000000  0   -3204768.415   -284944.489  -6097919.397
10 0 59459  60342.000000  0   -2429923.731     58652.824  -6452179.193
10 0 59459  60462.000000  0   -1607089.236    387253.747  -6693832.130
10 0 59459  60582.000000  0    -750855.037    694455.341  -6818719.785
10 0 59459  60702.000000  0     123521.617    974489.270  -6824694.593
10 0 59459  60822.000000  0    1000380.876   1222326.486  -6711652.250
10 0 59459  60942.000000  0    1863934.035   1433764.954  -6481536.116
10 0 59459  61062.000000  0    2698542.533   1605500.545  -6138307.533
10 0 59459  61182.000000  0    3488996.993   1735178.242  -5687884.126
10 0 59459  61302.000000  0    4220791.097   1821423.259  -5138047.120
10 0 59459  61422.000000  0    4880389.109   1863852.604  -4498319.226
10 0 59459  61542.000000  0    5455481.728   1863066.080  -3779810.129
10 0 59459  61662.000000  0    5935223.186   1820616.101  -2995032.419
10 0 59459  61782.000000  0    6310446.196   1738957.187  -2157691.031
10 0 59459  61902.000000  0    6573849.501   1621376.292  -1282446.338
10 0 59459  62022.000000  0    6720150.867   1471904.215   -384655.875
10 0 59459  62142.000000  0    6746201.897   1295210.015    519900.592
10 0 59459  62262.000000  0    6651059.221   1096482.076   1415305.004
10 0 59459  62382.000000  0    6436014.968    881298.148   2285789.063
10 0 59459  62502.000000  0    6104579.908    655486.574   3116021.999
99
